STARLINK-1172           
1 45074U 20006AG  26068.70759554 -.00001306  00000+0 -31999-4 0  9998
2 45074  53.1578 257.7398 0001496  86.4728 273.6444 15.30183132336871
NUSHSAT1                
1 63211U 25052B   26068.64700493  .00023034  00000+0  74857-3 0  9997
2 63211  97.4095 325.7239 0005501  84.7512 275.4357 15.31903202 54882
